NORAD_CAT_ID,OBJECT_NAME,OBJECT_TYPE,EPOCH,MEAN_MOTION,ECCENTRICITY,INCLINATION,RA_OF_ASC_NODE,ARG_OF_PERICENTER,MEAN_ANOMALY,BSTAR,MEAN_MOTION_DOT,MEAN_MOTION_DDOT,TLE_LINE0,TLE_LINE1,TLE_LINE2,SEMIMAJOR_AXIS,PERIOD,APOGEE,PERIGEE,DECAYED
55660.0,STARLINK-5467,PAYLOAD,2024-06-10 04:20:14,14.99116757,0.0002889,70.0005,331.777,279.9104,80.1729,0.00029913,3.551e-05,0.0,0 STARLINK-5467,1 55660U 23021AJ  24162.18072469  .00003551  00000-0  29913-3 0  9993,2 55660  70.0005 331.7770 0002889 279.9104  80.1729 14.99116757 73493,6947.761,96.057,571.633,567.619,0.0
55660.0,STARLINK-5467,PAYLOAD,2024-06-10 12:20:38,14.99143851,0.0002971,70.0004,330.9343,278.7998,81.2824,3.2364e-05,3.01e-06,0.0,0 STARLINK-5467,1 55660U 23021AJ  24162.51433378  .00000301  00000-0  32364-4 0  9995,2 55660  70.0004 330.9343 0002971 278.7998  81.2824 14.99143851 73548,6947.677,96.055,571.606,567.478,0.0
55660.0,STARLINK-5467,PAYLOAD,2024-06-10 13:56:43,14.99143412,0.0002954,69.9998,330.7658,278.3653,81.7172,2.8254e-05,2.51e-06,0.0,0 STARLINK-5467,1 55660U 23021AJ  24162.58105801  .00000251  00000-0  28254-4 0  9996,2 55660  69.9998 330.7658 0002954 278.3653  81.7172 14.99143412 73857,6947.679,96.055,571.596,567.491,0.0
55660.0,STARLINK-5467,PAYLOAD,2024-06-10 20:21:02,14.99145962,0.0002941,69.9999,330.0933,273.4649,86.6174,6.8862e-05,7.46e-06,0.0,0 STARLINK-5467,1 55660U 23021AJ  24162.84795035  .00000746  00000-0  68862-4 0  9997,2 55660  69.9999 330.0933 0002941 273.4649  86.6174 14.99145962 73896,6947.671,96.055,571.579,567.492,0.0
55660.0,STARLINK-5467,PAYLOAD,2024-06-11 13:57:57,14.99138247,0.0003041,69.9997,328.2401,274.9332,85.148,0.00019384,2.269e-05,0.0,0 STARLINK-5467,1 55660U 23021AJ  24163.58191424  .00002269  00000-0  19384-3 0  9997,2 55660  69.9997 328.2401 0003041 274.9332  85.1480 14.99138247 74006,6947.695,96.055,571.672,567.447,0.0
55660.0,STARLINK-5467,PAYLOAD,2024-06-12 04:22:42,14.991387,0.0003258,69.9997,326.7235,271.1152,88.9634,-6.0579e-07,-1.01e-06,0.0,0 STARLINK-5467,1 55660U 23021AJ  24164.18243295 -.00000101  00000-0 -60579-6 0  9998,2 55660  69.9997 326.7235 0003258 271.1152  88.9634 14.99138700 73794,6947.693,96.055,571.822,567.295,0.0
55660.0,STARLINK-5467,PAYLOAD,2024-06-12 20:23:32,14.99136832,0.0002911,70.0001,325.0385,269.5421,90.5404,-0.00011165,-1.454e-05,0.0,0 STARLINK-5467,1 55660U 23021AJ  24164.84967817 -.00001454  00000-0 -11165-3 0  9990,2 55660  70.0001 325.0385 0002911 269.5421  90.5404 14.99136832 74199,6947.699,96.055,571.586,567.541,0.0
55660.0,STARLINK-5467,PAYLOAD,2024-06-13 04:23:56,14.99142469,0.0002943,70.0002,324.1966,269.6595,90.4228,-7.7905e-05,-1.043e-05,0.0,0 STARLINK-5467,1 55660U 23021AJ  24165.18329323 -.00001043  00000-0 -77905-4 0  9991,2 55660  70.0002 324.1966 0002943 269.6595  90.4228 14.99142469 73941,6947.682,96.055,571.591,567.502,0.0
55660.0,STARLINK-5467,PAYLOAD,2024-06-13 14:00:25,14.99145629,0.0003053,69.9998,323.1858,269.7269,90.3541,-3.3868e-05,-5.06e-06,0.0,0 STARLINK-5467,1 55660U 23021AJ  24165.58363224 -.00000506  00000-0 -33868-4 0  9996,2 55660  69.9998 323.1858 0003053 269.7269  90.3541 14.99145629 74302,6947.672,96.055,571.658,567.416,0.0
55660.0,STARLINK-5467,PAYLOAD,2024-06-13 20:24:45,14.9914768,0.0003065,70.0,322.5118,270.1769,89.9039,-2.4957e-05,-3.98e-06,0.0,0 STARLINK-5467,1 55660U 23021AJ  24165.85052555 -.00000398  00000-0 -24957-4 0  9996,2 55660  70.0000 322.5118 0003065 270.1769  89.9039 14.99147680 74344,6947.665,96.055,571.66,567.401,0.0
55660.0,STARLINK-5467,PAYLOAD,2024-06-14 14:01:39,14.99139275,0.0003115,69.9999,320.6593,269.7082,90.372,0.00011597,1.32e-05,0.0,0 STARLINK-5467,1 55660U 23021AJ  24166.58448852  .00001320  00000-0  11597-3 0  9995,2 55660  69.9999 320.6593 0003115 269.7082  90.3720 14.99139275 74458,6947.691,96.055,571.721,567.392,0.0
55660.0,STARLINK-5467,PAYLOAD,2024-06-14 20:25:59,14.99146812,0.0003118,69.9999,319.9856,269.9982,90.082,0.00015209,1.76e-05,0.0,0 STARLINK-5467,1 55660U 23021AJ  24166.85137775  .00001760  00000-0  15209-3 0  9996,2 55660  69.9999 319.9856 0003118 269.9982  90.0820 14.99146812 74492,6947.668,96.055,571.699,567.367,0.0
55660.0,STARLINK-5467,PAYLOAD,2024-06-15 14:02:54,14.99138947,0.0002997,70.0001,318.1326,270.0142,90.0674,-8.5579e-05,-1.136e-05,0.0,0 STARLINK-5467,1 55660U 23021AJ  24167.58535196 -.00001136  00000-0 -85579-4 0  9993,2 55660  70.0001 318.1326 0002997 270.0142  90.0674 14.99138947 74607,6947.692,96.055,571.64,567.475,0.0
55660.0,STARLINK-5467,PAYLOAD,2024-06-15 20:27:13,14.99142798,0.0002954,70.0002,317.4589,269.7371,90.345,-2.9223e-05,-4.5e-06,0.0,0 STARLINK-5467,1 55660U 23021AJ  24167.85224327 -.00000450  00000-0 -29223-4 0  9996,2 55660  70.0002 317.4589 0002954 269.7371  90.3450 14.99142798 74641,6947.681,96.055,571.598,567.493,0.0
55660.0,STARLINK-5467,PAYLOAD,2024-06-16 14:04:08,14.9914093,0.0002809,70.0005,315.6062,271.8044,88.2793,-9.6747e-05,-1.272e-05,0.0,0 STARLINK-5467,1 55660U 23021AJ  24168.58620960 -.00001272  00000-0 -96747-4 0  9998,2 55660  70.0005 315.6062 0002809 271.8044  88.2793 14.99140930 74754,6947.686,96.055,571.503,567.6,0.0
55660.0,STARLINK-5467,PAYLOAD,2024-06-16 18:52:23,14.99140012,0.000279,70.0006,315.1017,267.8989,92.1851,-9.3347e-05,-1.231e-05,0.0,0 STARLINK-5467,1 55660U 23021AJ  24168.78638166 -.00001231  00000-0 -93347-4 0  9995,2 55660  70.0006 315.1017 0002790 267.8989  92.1851 14.99140012 74785,6947.689,96.055,571.493,567.616,0.0
55660.0,STARLINK-5467,PAYLOAD,2024-06-17 18:53:38,14.99132516,0.0002889,70.0002,312.5749,269.005,91.0778,-4.3132e-05,-6.19e-06,0.0,0 STARLINK-5467,1 55660U 23021AJ  24169.78724690 -.00000619  00000-0 -43132-4 0  9990,2 55660  70.0002 312.5749 0002889 269.0050  91.0778 14.99132516 74939,6947.712,96.056,571.584,567.57,0.0
55660.0,STARLINK-5467,PAYLOAD,2024-06-18 12:30:32,14.99136661,0.0002971,70.0001,310.7219,269.1614,90.9205,4.3e-05,4.3e-06,0.0,0 STARLINK-5467,1 55660U 23021AJ  24170.52120758  .00000430  00000-0  43000-4 0  9992,2 55660  70.0001 310.7219 0002971 269.1614  90.9205 14.99136661 74746,6947.699,96.055,571.629,567.5,0.0
55660.0,STARLINK-5467,PAYLOAD,2024-06-18 14:06:37,14.99136689,0.0002972,70.0001,310.5535,269.155,90.9269,4.2736e-05,4.27e-06,0.0,0 STARLINK-5467,1 55660U 23021AJ  24170.58793167  .00000427  00000-0  42736-4 0  9999,2 55660  70.0001 310.5535 0002972 269.1550  90.9269 14.99136689 75050,6947.699,96.055,571.629,567.5,0.0
55660.0,STARLINK-5467,PAYLOAD,2024-06-18 18:54:51,14.99139132,0.0002992,70.0,310.048,268.8289,91.2527,5.0444e-05,5.21e-06,0.0,0 STARLINK-5467,1 55660U 23021AJ  24170.78810179  .00000521  00000-0  50444-4 0  9994,2 55660  70.0000 310.0480 0002992 268.8289  91.2527 14.99139132 75080,6947.692,96.055,571.636,567.478,0.0
55660.0,STARLINK-5467,PAYLOAD,2024-06-19 12:31:46,14.99133935,0.0003107,69.9991,308.193,267.8994,92.1809,8.1472e-05,8.99e-06,0.0,0 STARLINK-5467,1 55660U 23021AJ  24171.52206804  .00000899  00000-0  81472-4 0  9994,2 55660  69.9991 308.1930 0003107 267.8994  92.1809 14.99133935 74891,6947.708,96.055,571.732,567.414,0.0
55660.0,STARLINK-5467,PAYLOAD,2024-06-19 14:07:51,14.99134923,0.0003098,69.9993,308.0248,268.0288,92.0516,8.6255e-05,9.57e-06,0.0,0 STARLINK-5467,1 55660U 23021AJ  24171.58879147  .00000957  00000-0  86255-4 0  9995,2 55660  69.9993 308.0248 0003098 268.0288  92.0516 14.99134923 75200,6947.705,96.055,571.722,567.417,0.0
55660.0,STARLINK-5467,PAYLOAD,2024-06-19 18:56:06,14.99138477,0.0003027,70.0001,307.5214,269.1156,90.9657,6.8003e-05,7.35e-06,0.0,0 STARLINK-5467,1 55660U 23021AJ  24171.78896216  .00000735  00000-0  68003-4 0  9998,2 55660  70.0001 307.5214 0003027 269.1156  90.9657 14.99138477 75232,6947.694,96.055,571.662,567.456,0.0
55660.0,STARLINK-5467,PAYLOAD,2024-06-20 14:09:05,14.99140144,0.0003096,69.9998,305.4988,269.9143,90.1662,6.0677e-06,-2e-07,0.0,0 STARLINK-5467,1 55660U 23021AJ  24172.58965026 -.00000020  00000-0  60677-5 0  9991,2 55660  69.9998 305.4988 0003096 269.9143  90.1662 14.99140144 75354,6947.689,96.055,571.705,567.403,0.0
55660.0,STARLINK-5467,PAYLOAD,2024-06-20 18:57:20,14.99146255,0.0003123,69.9998,304.9936,270.3999,89.6803,1.8899e-05,1.37e-06,0.0,0 STARLINK-5467,1 55660U 23021AJ  24172.78981727  .00000137  00000-0  18899-4 0  9995,2 55660  69.9998 304.9936 0003123 270.3999  89.6803 14.99146255 75086,6947.67,96.055,571.705,567.365,0.0
55660.0,STARLINK-5467,PAYLOAD,2024-06-21 12:34:15,14.99136829,0.0002989,70.0002,303.1403,271.1583,88.9234,-3.3849e-05,-5.06e-06,0.0,0 STARLINK-5467,1 55660U 23021AJ  24173.52378802 -.00000506  00000-0 -33849-4 0  9996,2 55660  70.0002 303.1403 0002989 271.1583  88.9234 14.99136829 75190,6947.699,96.055,571.641,567.487,0.0
55660.0,STARLINK-5467,PAYLOAD,2024-06-21 14:10:20,14.99137122,0.0002987,70.0003,302.9719,271.1879,88.8938,-3.056e-05,-4.66e-06,0.0,0 STARLINK-5467,1 55660U 23021AJ  24173.59051179 -.00000466  00000-0 -30560-4 0  9990,2 55660  70.0003 302.9719 0002987 271.1879  88.8938 14.99137122 75506,6947.698,96.055,571.638,567.488,0.0
55660.0,STARLINK-5467,PAYLOAD,2024-06-21 18:58:34,14.99139572,0.0002988,70.0003,302.4667,271.1063,88.9754,-1.1042e-05,-2.28e-06,0.0,0 STARLINK-5467,1 55660U 23021AJ  24173.79068162 -.00000228  00000-0 -11042-4 0  9992,2 55660  70.0003 302.4667 0002988 271.1063  88.9754 14.99139572 75530,6947.69,96.055,571.631,567.48,0.0
55660.0,STARLINK-5467,PAYLOAD,2024-06-22 12:35:29,14.99138465,0.0002927,70.0005,300.6142,272.6912,87.3913,-3.5965e-05,-5.32e-06,0.0,0 STARLINK-5467,1 55660U 23021AJ  24174.52464715 -.00000532  00000-0 -35965-4 0  9996,2 55660  70.0005 300.6142 0002927 272.6912  87.3913 14.99138465 75341,6947.694,96.055,571.592,567.525,0.0
55660.0,STARLINK-5467,PAYLOAD,2024-06-22 17:23:44,14.99138474,0.0002839,70.0006,300.1093,264.8891,95.1944,-2.0404e-05,-3.42e-06,0.0,0 STARLINK-5467,1 55660U 23021AJ  24174.72481822 -.00000342  00000-0 -20404-4 0  9997,2 55660  70.0006 300.1093 0002839 264.8891  95.1944 14.99138474 75670,6947.694,96.055,571.531,567.586,0.0
